[{"OBJECT_NAME":"STARLINK-36459","OBJECT_ID":"2026-005Z","EPOCH":"2026-03-08T21:47:44.345760","MEAN_MOTION":15.27551516,"ECCENTRICITY":0.00014883,"INCLINATION":43.0005,"RA_OF_ASC_NODE":242.6774,"ARG_OF_PERICENTER":264.8725,"MEAN_ANOMALY":95.1957,"EPHEMERIS_TYPE":0,"CLASSIFICATION_TYPE":"U","NORAD_CAT_ID":67427,"ELEMENT_SET_NO":999,"REV_AT_EPOCH":856,"BSTAR":0.0012378071,"MEAN_MOTION_DOT":0.00033927,"MEAN_MOTION_DDOT":0},{"OBJECT_NAME":"NOAA 17 DEB","OBJECT_ID":"2002-032AF","EPOCH":"2026-03-09T00:24:06.552000","MEAN_MOTION":15.25501717,"ECCENTRICITY":0.00030847,"INCLINATION":98.6472,"RA_OF_ASC_NODE":92.5947,"ARG_OF_PERICENTER":165.9893,"MEAN_ANOMALY":194.1428,"EPHEMERIS_TYPE":0,"CLASSIFICATION_TYPE":"U","NORAD_CAT_ID":48614,"ELEMENT_SET_NO":999,"REV_AT_EPOCH":26420,"BSTAR":0.01090047,"MEAN_MOTION_DOT":0.00286783,"MEAN_MOTION_DDOT":0}]
